{"type": "FeatureCollection", "features": [ {"type": "Feature", "properties": {"norad_id": 30879, "name": "FENGYUN 1C DEB", "group": "fengyun-1c-debris", "lat": -79.10261918819786, "lon": -31.24176854751515, "alt_km": 534.4940042166099, "timestamp": "2025-12-16T10:53:45.748984+00:00", "meta": {"OBJECT_NAME": "FENGYUN 1C DEB", "OBJECT_ID": "1999-025AXR", "EPOCH": "2025-12-15T20:35:34.105632", "MEAN_MOTION": 14.67516465, "ECCENTRICITY": 0.02016825, "INCLINATION": 99.3526, "RA_OF_ASC_NODE": 206.9541, "ARG_OF_PERICENTER": 270.4804, "MEAN_ANOMALY": 87.3291, "EPHEMERIS_TYPE": 0, "CLASSIFICATION_TYPE": "U", "NORAD_CAT_ID": 30879, "ELEMENT_SET_NO": 999, "REV_AT_EPOCH": 61985, "BSTAR": 0.0024042823, "MEAN_MOTION_DOT": 0.00018508, "MEAN_MOTION_DDOT": 0}, "tle": {"line1": "1 30879U 99025AXR 25349.85803363  .00018508  00000+0  24043-2 0  9997", "line2": "2 30879  99.3526 206.9541 0201682 270.4804  87.3291 14.67516465619858"}}, "geometry": {"type": "Point", "coordinates": [-31.24176854751515, -79.10261918819786]}}, {"type": "Feature", "properties": {"norad_id": 30880, "name": "FENGYUN 1C DEB", "group": "fengyun-1c-debris", "lat": -53.812286274198414, "lon": -129.91101186950013, "alt_km": 825.1019429053131, "timestamp": "2025-12-16T10:53:45.748994+00:00", "meta": {"OBJECT_NAME": "FENGYUN 1C DEB", "OBJECT_ID": "1999-025AXS", "EPOCH": "2025-12-15T22:00:34.198272", "MEAN_MOTION": 14.25620172, "ECCENTRICITY": 0.00221246, "INCLINATION": 98.7951, "RA_OF_ASC_NODE": 61.7684, "ARG_OF_PERICENTER": 98.5744, "MEAN_ANOMALY": 261.7944, "EPHEMERIS_TYPE": 0, "CLASSIFICATION_TYPE": "U", "NORAD_CAT_ID": 30880, "ELEMENT_SET_NO": 999, "REV_AT_EPOCH": 96759, "BSTAR": 0.0010203812, "MEAN_MOTION_DOT": 2.379e-05, "MEAN_MOTION_DDOT": 0}, "tle": {"line1": "1 30880U 99025AXS 25349.91706248  .00002379  00000+0  10204-2 0  9993", "line2": "2 30880  98.7951  61.7684 0022124  98.5744 261.7944 14.25620172967599"}}, "geometry": {"type": "Point", "coordinates": [-129.91101186950013, -53.812286274198414]}}, {"type": "Feature", "properties": {"norad_id": 30882, "name": "FENGYUN 1C DEB", "group": "fengyun-1c-debris", "lat": -2.1303119824932555, "lon": -134.50982709677885, "alt_km": 706.5101663806108, "timestamp": "2025-12-16T10:53:45.749004+00:00", "meta": {"OBJECT_NAME": "FENGYUN 1C DEB", "OBJECT_ID": "1999-025AXU", "EPOCH": "2025-12-15T09:51:33.032736", "MEAN_MOTION": 14.86763812, "ECCENTRICITY": 0.01530209, "INCLINATION": 97.9427, "RA_OF_ASC_NODE": 44.7446, "ARG_OF_PERICENTER": 32.1287, "MEAN_ANOMALY": 328.9142, "EPHEMERIS_TYPE": 0, "CLASSIFICATION_TYPE": "U", "NORAD_CAT_ID": 30882, "ELEMENT_SET_NO": 999, "REV_AT_EPOCH": 99694, "BSTAR": 0.0005673037, "MEAN_MOTION_DOT": 6.197e-05, "MEAN_MOTION_DDOT": 0}, "tle": {"line1": "1 30882U 99025AXU 25349.41079899  .00006197  00000+0  56730-3 0  9992", "line2": "2 30882  97.9427  44.7446 0153020  32.1287 328.9142 14.86763812996946"}}, "geometry": {"type": "Point", "coordinates": [-134.50982709677885, -2.1303119824932555]}}, {"type": "Feature", "properties": {"norad_id": 30883, "name": "FENGYUN 1C DEB", "group": "fengyun-1c-debris", "lat": -41.94827969662566, "lon": 34.903340667576764, "alt_km": 883.0937744037801, "timestamp": "2025-12-16T10:53:45.749014+00:00", "meta": {"OBJECT_NAME": "FENGYUN 1C DEB", "OBJECT_ID": "1999-025AXV", "EPOCH": "2025-12-15T08:14:08.255040", "MEAN_MOTION": 14.14551541, "ECCENTRICITY": 0.01119962, "INCLINATION": 98.3618, "RA_OF_ASC_NODE": 26.2665, "ARG_OF_PERICENTER": 206.3636, "MEAN_ANOMALY": 216.3737, "EPHEMERIS_TYPE": 0, "CLASSIFICATION_TYPE": "U", "NORAD_CAT_ID": 30883, "ELEMENT_SET_NO": 999, "REV_AT_EPOCH": 96954, "BSTAR": 0.00020026857, "MEAN_MOTION_DOT": 3.68e-06, "MEAN_MOTION_DDOT": 0}, "tle": {"line1": "1 30883U 99025AXV 25349.34315110  .00000368  00000+0  20027-3 0  9998", "line2": "2 30883  98.3618  26.2665 0111996 206.3636 216.3737 14.14551541969542"}}, "geometry": {"type": "Point", "coordinates": [34.903340667576764, -41.94827969662566]}}, {"type": "Feature", "properties": {"norad_id": 30884, "name": "FENGYUN 1C DEB", "group": "fengyun-1c-debris", "lat": -20.957145592035427, "lon": -11.923113731319466, "alt_km": 609.6507758158332, "timestamp": "2025-12-16T10:53:45.749026+00:00", "meta": {"OBJECT_NAME": "FENGYUN 1C DEB", "OBJECT_ID": "1999-025AXW", "EPOCH": "2025-12-15T17:03:53.562240", "MEAN_MOTION": 14.73563781, "ECCENTRICITY": 0.0066546, "INCLINATION": 98.8901, "RA_OF_ASC_NODE": 343.8265, "ARG_OF_PERICENTER": 326.6126, "MEAN_ANOMALY": 33.0891, "EPHEMERIS_TYPE": 0, "CLASSIFICATION_TYPE": "U", "NORAD_CAT_ID": 30884, "ELEMENT_SET_NO": 999, "REV_AT_EPOCH": 98705, "BSTAR": 0.0012653678, "MEAN_MOTION_DOT": 8.474e-05, "MEAN_MOTION_DDOT": 0}, "tle": {"line1": "1 30884U 99025AXW 25349.71103660  .00008474  00000+0  12654-2 0  9997", "line2": "2 30884  98.8901 343.8265 0066546 326.6126  33.0891 14.73563781987052"}}, "geometry": {"type": "Point", "coordinates": [-11.923113731319466, -20.957145592035427]}}, {"type": "Feature", "properties": {"norad_id": 30885, "name": "FENGYUN 1C DEB", "group": "fengyun-1c-debris", "lat": 58.78258660115552, "lon": 176.03398410966207, "alt_km": 753.7955990710325, "timestamp": "2025-12-16T10:53:45.749038+00:00", "meta": {"OBJECT_NAME": "FENGYUN 1C DEB", "OBJECT_ID": "1999-025AXX", "EPOCH": "2025-12-15T19:47:40.793280", "MEAN_MOTION": 14.49488933, "ECCENTRICITY": 0.00535377, "INCLINATION": 99.0272, "RA_OF_ASC_NODE": 190.5686, "ARG_OF_PERICENTER": 209.9595, "MEAN_ANOMALY": 168.8946, "EPHEMERIS_TYPE": 0, "CLASSIFICATION_TYPE": "U", "NORAD_CAT_ID": 30885, "ELEMENT_SET_NO": 999, "REV_AT_EPOCH": 97022, "BSTAR": 0.0015458422, "MEAN_MOTION_DOT": 5.983e-05, "MEAN_MOTION_DDOT": 0}, "tle": {"line1": "1 30885U 99025AXX 25349.82477770  .00005983  00000+0  15458-2 0  9993", "line2": "2 30885  99.0272 190.5686 0053537 209.9595 168.8946 14.49488933970227"}}, "geometry": {"type": "Point", "coordinates": [176.03398410966207, 58.78258660115552]}}, {"type": "Feature", "properties": {"norad_id": 30886, "name": "FENGYUN 1C DEB", "group": "fengyun-1c-debris", "lat": -43.264941182884684, "lon": -107.61871451488328, "alt_km": 812.5484702861258, "timestamp": "2025-12-16T10:53:45.749048+00:00", "meta": {"OBJECT_NAME": "FENGYUN 1C DEB", "OBJECT_ID": "1999-025AXY", "EPOCH": "2025-12-14T23:39:31.579488", "MEAN_MOTION": 14.22802128, "ECCENTRICITY": 0.00363991, "INCLINATION": 99.2092, "RA_OF_ASC_NODE": 242.0642, "ARG_OF_PERICENTER": 28.2627, "MEAN_ANOMALY": 332.0514, "EPHEMERIS_TYPE": 0, "CLASSIFICATION_TYPE": "U", "NORAD_CAT_ID": 30886, "ELEMENT_SET_NO": 999, "REV_AT_EPOCH": 96428, "BSTAR": 0.0013708311, "MEAN_MOTION_DOT": 3.05e-05, "MEAN_MOTION_DDOT": 0}, "tle": {"line1": "1 30886U 99025AXY 25348.98578217  .00003050  00000+0  13708-2 0  9997", "line2": "2 30886  99.2092 242.0642 0036399  28.2627 332.0514 14.22802128964282"}}, "geometry": {"type": "Point", "coordinates": [-107.61871451488328, -43.264941182884684]}}, {"type": "Feature", "properties": {"norad_id": 30887, "name": "FENGYUN 1C DEB", "group": "fengyun-1c-debris", "lat": -35.258660056119716, "lon": -139.703322338206, "alt_km": 653.8425678877456, "timestamp": "2025-12-16T10:53:45.749061+00:00", "meta": {"OBJECT_NAME": "FENGYUN 1C DEB", "OBJECT_ID": "1999-025AXZ", "EPOCH": "2025-12-14T21:18:37.059552", "MEAN_MOTION": 14.44832312, "ECCENTRICITY": 0.02635815, "INCLINATION": 98.3692, "RA_OF_ASC_NODE": 44.726, "ARG_OF_PERICENTER": 281.2617, "MEAN_ANOMALY": 75.9061, "EPHEMERIS_TYPE": 0, "CLASSIFICATION_TYPE": "U", "NORAD_CAT_ID": 30887, "ELEMENT_SET_NO": 999, "REV_AT_EPOCH": 98159, "BSTAR": 0.00051122754, "MEAN_MOTION_DOT": 2.668e-05, "MEAN_MOTION_DDOT": 0}, "tle": {"line1": "1 30887U 99025AXZ 25348.88792893  .00002668  00000+0  51123-3 0  9993", "line2": "2 30887  98.3692  44.7260 0263581 281.2617  75.9061 14.44832312981592"}}, "geometry": {"type": "Point", "coordinates": [-139.703322338206, -35.258660056119716]}}, {"type": "Feature", "properties": {"norad_id": 30888, "name": "FENGYUN 1C DEB", "group": "fengyun-1c-debris", "lat": -27.52927775953233, "lon": -24.979525735032226, "alt_km": 647.7683201009513, "timestamp": "2025-12-16T10:53:45.749071+00:00", "meta": {"OBJECT_NAME": "FENGYUN 1C DEB", "OBJECT_ID": "1999-025AYA", "EPOCH": "2025-12-15T22:09:48.066336", "MEAN_MOTION": 14.93964967, "ECCENTRICITY": 0.00832317, "INCLINATION": 99.4832, "RA_OF_ASC_NODE": 329.3828, "ARG_OF_PERICENTER": 140.7363, "MEAN_ANOMALY": 219.9928, "EPHEMERIS_TYPE": 0, "CLASSIFICATION_TYPE": "U", "NORAD_CAT_ID": 30888, "ELEMENT_SET_NO": 999, "REV_AT_EPOCH": 99973, "BSTAR": 0.00061679313, "MEAN_MOTION_DOT": 6.953e-05, "MEAN_MOTION_DDOT": 0}, "tle": {"line1": "1 30888U 99025AYA 25349.92347299  .00006953  00000+0  61679-3 0  9994", "line2": "2 30888  99.4832 329.3828 0083231 140.7363 219.9928 14.93964967999735"}}, "geometry": {"type": "Point", "coordinates": [-24.979525735032226, -27.52927775953233]}}, {"type": "Feature", "properties": {"norad_id": 30891, "name": "FENGYUN 1C DEB", "group": "fengyun-1c-debris", "lat": 25.888139517554453, "lon": -137.73422592855187, "alt_km": 835.6312838773474, "timestamp": "2025-12-16T10:53:45.749083+00:00", "meta": {"OBJECT_NAME": "FENGYUN 1C DEB", "OBJECT_ID": "1999-025AYD", "EPOCH": "2025-12-15T21:20:44.128032", "MEAN_MOTION": 14.0587446, "ECCENTRICITY": 0.00555218, "INCLINATION": 98.785, "RA_OF_ASC_NODE": 37.4143, "ARG_OF_PERICENTER": 178.8708, "MEAN_ANOMALY": 359.1123, "EPHEMERIS_TYPE": 0, "CLASSIFICATION_TYPE": "U", "NORAD_CAT_ID": 30891, "ELEMENT_SET_NO": 999, "REV_AT_EPOCH": 96026, "BSTAR": 0.00089616056, "MEAN_MOTION_DOT": 1.444e-05, "MEAN_MOTION_DDOT": 0}, "tle": {"line1": "1 30891U 99025AYD 25349.88939963  .00001444  00000+0  89616-3 0  9999", "line2": "2 30891  98.7850  37.4143 0055521 178.8708 359.1123 14.05874460960265"}}, "geometry": {"type": "Point", "coordinates": [-137.73422592855187, 25.888139517554453]}}]}